GORIZONT 1 [-]          
1 11158U 78118A   22311.12380023 -.00000074  00000+0  00000+0 0  9999
2 11158  11.0761 199.7525 3445062 289.0304  37.4916  1.00307804109724
GORIZONT 2 [-]          
1 11440U 79062A   22312.06993747 -.00000004  00000+0  00000+0 0  9992
2 11440   8.9552 300.1891 0003817 282.4861 273.8506  1.00296500124813
GORIZONT 3 [-]          
1 11648U 79105A   22312.01219980 -.00000129  00000+0  00000+0 0  9993
2 11648   9.1168 301.6415 0013716 218.1619 327.9856  1.00348271109278
GORIZONT 4 [-]          
1 11841U 80049A   22312.24835828 -.00000116  00000+0  00000+0 0  9993
2 11841  10.2720 307.4868 0001012 279.4735 106.9255  0.98630793220531
GORIZONT 5 [-]          
1 13092U 82020A   22312.11507720 -.00000016  00000+0  00000+0 0  9996
2 13092  11.2733 312.8012 0034247 215.1647 147.5512  0.98531352108625
GORIZONT 6 [-]          
1 13624U 82103A   22312.33828666  .00000101  00000+0  00000+0 0  9992
2 13624  10.1972 312.8510 0001964 228.1865 182.4632  1.00309013107742
GORIZONT 7 [-]          
1 14160U 83066A   22311.87271549 -.00000203  00000+0  00000+0 0  9991
2 14160  11.8742 322.2623 0009390 315.7433 218.7287  0.98349361141794
GORIZONT 8 [-]          
1 14532U 83118A   22312.28452035 -.00000196  00000+0  00000+0 0  9990
2 14532  12.0510 324.1218 0030134 152.4376  29.1697  0.98271510107562
GORIZONT 9 [-]          
1 14940U 84041A   22312.06993747 -.00000085  00000+0  00000+0 0  9992
2 14940  11.2416 322.1438 0004813 214.6074 328.9316  1.00222430108733
GORIZONT 10 [-]         
1 15144U 84078A   22312.33828684  .00000088  00000+0  00000+0 0  9998
2 15144  11.3386 323.1683 0000678 174.5677 225.5878  1.00240112141377
GORIZONT 11 [-]         
1 15484U 85007A   22311.97341262 -.00000375  00000+0  00000+0 0  9999
2 15484  11.5240 325.1575 0003609 162.0727  23.8020  1.00362558139422
GORIZONT 12 [-]         
1 16769U 86044A   22312.17202059  .00000091  00000+0  00000+0 0  9995
2 16769  12.1541 330.5439 0001926 227.8571 321.8001  1.00219014134058
GORIZONT 13 [-]         
1 17083U 86090A   22311.84355390 -.00000110  00000+0  00000+0 0  9999
2 17083  14.0445 337.7455 0012977 339.1786 141.8277  0.96725940105903
GORIZONT 14 [-]         
1 17969U 87040A   22311.83379478 -.00000045  00000+0  00000+0 0  9997
2 17969  12.9699 329.1212 0031730 176.8965 280.6663  0.97657572106990
GORIZONT 15 [-]         
1 19017U 88028A   22312.15615755 -.00000049  00000+0  00000+0 0  9991
2 19017  14.3398 340.5552 0037270 159.7654 217.0035  0.97827353106625
GORIZONT 16 [-]         
1 19397U 88071A   22312.31268462  .00000089  00000+0  00000+0 0  9990
2 19397  13.1903 339.2340 0013323  65.9476 317.0894  0.99979712125071
GORIZONT 17 [-]         
1 19765U 89004A   22312.27549234 -.00000098  00000+0  00000+0 0  9991
2 19765  13.7446 342.5897 0023294 136.0634 220.8762  0.99068012122520
GORIZONT 18 [-]         
1 20107U 89052A   22311.98630127 -.00000255  00000+0  00000+0 0  9990
2 20107  13.7916 343.8490 0033449 319.3622  45.0134  0.99401599121321
GORIZONT 19 [-]         
1 20263U 89081A   22311.71820316 -.00000109  00000+0  00000+0 0  9995
2 20263  13.5210 343.0309 0004244 208.1029 187.0294  1.00355716 34135
GORIZONT 20 [-]         
1 20659U 90054A   22312.05882632 -.00000272  00000+0  00000+0 0  9994
2 20659  13.9634 345.8477 0007039 169.1885   6.8563  1.00245635118481
GORIZONT 21 [-]         
1 20923U 90094A   22311.98447007 -.00000305  00000+0  00000+0 0  9993
2 20923  13.9790 346.6181 0005341 201.6926 150.1968  1.00362788117234
GORIZONT 22 [-]         
1 20953U 90102A   22311.85717171 -.00000309  00000+0  00000+0 0  9998
2 20953  13.9386 346.9877 0002301  30.0824 117.7188  1.00253400117162
GORIZONT 23 [-]         
1 21533U 91046A   22311.92020337 -.00000255  00000+0  00000+0 0  9990
2 21533  14.7105 351.1473 0003265 302.7968  59.1782  0.98910751 33669
GORIZONT 24 [-]         
1 21759U 91074A   22312.04887605 -.00000111  00000+0  00000+0 0  9995
2 21759  14.8703 353.0573 0018160 225.2585 138.9466  0.98443064111996
GORIZONT 25 [-]         
1 21922U 92017A   22312.16195538 -.00000113  00000+0  00000+0 0  9997
2 21922  14.4110 352.3757 0028715  85.1116 292.5157  0.99843839111799
GORIZONT 26 [-]         
1 22041U 92043A   22311.98970208 -.00000274  00000+0  00000+0 0  9991
2 22041  14.5874 354.3889 0031394 235.5701 136.9369  0.99245484110401
GORIZONT 27 [-]         
1 22245U 92082A   22311.71893994  .00000110  00000+0  00000+0 0  9995
2 22245  14.5034 353.9729 0011177  12.2204 343.8893  1.00155553113918
GORIZONT 28 [-]         
1 22880U 93069A   22311.71453079  .00000069  00000+0  00000+0 0  9995
2 22880  14.6546 357.8413 0034708 135.1534 233.5552  0.99647298106009
GORIZONT 29 [-]         
1 22907U 93072A   22308.10478825 -.00000241  00000+0  00000+0 0  9997
2 22907  14.5667 357.3236 0009007 345.7505  71.1985  1.00159244105941
GORIZONT 30 [-]         
1 23108U 94030A   22312.36800029 -.00000271  00000+0  00000+0 0  9997
2 23108  14.5798 358.1927 0002341 176.8718 149.1922  1.00261643104256
GORIZONT 31 [-]         
1 23775U 96005A   22312.37134288 -.00000311  00000+0  00000+0 0  9994
2 23775  14.5096   4.4216 0018910 201.6620 120.7911  0.99900315 97894
GORIZONT 32 [-]         
1 23880U 96034A   22312.34979894  .00000067  00000+0  00000+0 0  9997
2 23880  14.4602   4.9358 0007888 358.5708   0.3632  1.00195873 96830
GORIZONT 33 [-]         
1 26372U 00029A   22311.99240530 -.00000193  00000+0  00000+0 0  9994
2 26372  13.2049  16.1645 0003395 109.7168 255.3254  1.00301071 82229
